{"type": "FeatureCollection", "features": [ {"type": "Feature", "properties": {"norad_id": 34058, "name": "COSMOS 2251 DEB", "group": "cosmos-2251-debris", "lat": 16.697875532822703, "lon": -25.361669543027173, "alt_km": 773.4245878828924, "timestamp": "2025-12-24T03:53:30.040865+00:00", "meta": {"OBJECT_NAME": "COSMOS 2251 DEB", "OBJECT_ID": "1993-036JV", "EPOCH": "2025-12-23T04:56:38.920128", "MEAN_MOTION": 13.56091905, "ECCENTRICITY": 0.03774788, "INCLINATION": 73.9315, "RA_OF_ASC_NODE": 161.1476, "ARG_OF_PERICENTER": 154.3942, "MEAN_ANOMALY": 21.2674, "EPHEMERIS_TYPE": 0, "CLASSIFICATION_TYPE": "U", "NORAD_CAT_ID": 34058, "ELEMENT_SET_NO": 999, "REV_AT_EPOCH": 83284, "BSTAR": 0.00067969496, "MEAN_MOTION_DOT": 7.34e-06, "MEAN_MOTION_DDOT": 0}, "tle": {"line1": "1 34058U 93036JV  25357.20600602  .00000734  00000+0  67969-3 0  9992", "line2": "2 34058  73.9315 161.1476 0377478 154.3942  21.2674 13.56091905832846"}}, "geometry": {"type": "Point", "coordinates": [-25.361669543027173, 16.697875532822703]}}, {"type": "Feature", "properties": {"norad_id": 34059, "name": "COSMOS 2251 DEB", "group": "cosmos-2251-debris", "lat": 41.037955921461936, "lon": 179.154829017713, "alt_km": 724.651708307897, "timestamp": "2025-12-24T03:53:30.040876+00:00", "meta": {"OBJECT_NAME": "COSMOS 2251 DEB", "OBJECT_ID": "1993-036JW", "EPOCH": "2025-12-23T17:52:05.899008", "MEAN_MOTION": 14.53009757, "ECCENTRICITY": 0.0018425, "INCLINATION": 74.0372, "RA_OF_ASC_NODE": 165.5153, "ARG_OF_PERICENTER": 241.8954, "MEAN_ANOMALY": 137.4731, "EPHEMERIS_TYPE": 0, "CLASSIFICATION_TYPE": "U", "NORAD_CAT_ID": 34059, "ELEMENT_SET_NO": 999, "REV_AT_EPOCH": 88619, "BSTAR": 0.00080289, "MEAN_MOTION_DOT": 3.294e-05, "MEAN_MOTION_DDOT": 0}, "tle": {"line1": "1 34059U 93036JW  25357.74451272  .00003294  00000+0  80289-3 0  9993", "line2": "2 34059  74.0372 165.5153 0018425 241.8954 137.4731 14.53009757886194"}}, "geometry": {"type": "Point", "coordinates": [179.154829017713, 41.037955921461936]}}, {"type": "Feature", "properties": {"norad_id": 34061, "name": "COSMOS 2251 DEB", "group": "cosmos-2251-debris", "lat": -49.11902876924098, "lon": 81.58291392990235, "alt_km": 762.6028288595762, "timestamp": "2025-12-24T03:53:30.040886+00:00", "meta": {"OBJECT_NAME": "COSMOS 2251 DEB", "OBJECT_ID": "1993-036JY", "EPOCH": "2025-12-23T04:12:26.443584", "MEAN_MOTION": 14.40377763, "ECCENTRICITY": 0.00208519, "INCLINATION": 74.0387, "RA_OF_ASC_NODE": 244.1, "ARG_OF_PERICENTER": 319.5068, "MEAN_ANOMALY": 197.413, "EPHEMERIS_TYPE": 0, "CLASSIFICATION_TYPE": "U", "NORAD_CAT_ID": 34061, "ELEMENT_SET_NO": 999, "REV_AT_EPOCH": 88330, "BSTAR": 0.00027185319, "MEAN_MOTION_DOT": 8.38e-06, "MEAN_MOTION_DDOT": 0}, "tle": {"line1": "1 34061U 93036JY  25357.17530606  .00000838  00000+0  27185-3 0  9999", "line2": "2 34061  74.0387 244.1000 0020851 319.5068 197.4130 14.40377763883303"}}, "geometry": {"type": "Point", "coordinates": [81.58291392990235, -49.11902876924098]}}, {"type": "Feature", "properties": {"norad_id": 34062, "name": "COSMOS 2251 DEB", "group": "cosmos-2251-debris", "lat": 43.70766967755091, "lon": -80.32309820817463, "alt_km": 600.9422474012408, "timestamp": "2025-12-24T03:53:30.040896+00:00", "meta": {"OBJECT_NAME": "COSMOS 2251 DEB", "OBJECT_ID": "1993-036JZ", "EPOCH": "2025-12-23T02:06:26.881632", "MEAN_MOTION": 14.79056755, "ECCENTRICITY": 0.00732261, "INCLINATION": 74.0286, "RA_OF_ASC_NODE": 117.6784, "ARG_OF_PERICENTER": 194.7008, "MEAN_ANOMALY": 341.8356, "EPHEMERIS_TYPE": 0, "CLASSIFICATION_TYPE": "U", "NORAD_CAT_ID": 34062, "ELEMENT_SET_NO": 999, "REV_AT_EPOCH": 88748, "BSTAR": 0.0028791317, "MEAN_MOTION_DOT": 0.00022324, "MEAN_MOTION_DDOT": 0}, "tle": {"line1": "1 34062U 93036JZ  25357.08781113  .00022324  00000+0  28791-2 0  9998", "line2": "2 34062  74.0286 117.6784 0073226 194.7008 341.8356 14.79056755887481"}}, "geometry": {"type": "Point", "coordinates": [-80.32309820817463, 43.70766967755091]}}, {"type": "Feature", "properties": {"norad_id": 34064, "name": "COSMOS 2251 DEB", "group": "cosmos-2251-debris", "lat": -66.73373166016127, "lon": -152.07542711228996, "alt_km": 743.3754389840469, "timestamp": "2025-12-24T03:53:30.040907+00:00", "meta": {"OBJECT_NAME": "COSMOS 2251 DEB", "OBJECT_ID": "1993-036KB", "EPOCH": "2025-12-23T03:57:35.154144", "MEAN_MOTION": 14.42371122, "ECCENTRICITY": 0.00223844, "INCLINATION": 74.0319, "RA_OF_ASC_NODE": 251.5274, "ARG_OF_PERICENTER": 316.6321, "MEAN_ANOMALY": 194.9451, "EPHEMERIS_TYPE": 0, "CLASSIFICATION_TYPE": "U", "NORAD_CAT_ID": 34064, "ELEMENT_SET_NO": 999, "REV_AT_EPOCH": 88292, "BSTAR": 0.00043700396, "MEAN_MOTION_DOT": 1.422e-05, "MEAN_MOTION_DDOT": 0}, "tle": {"line1": "1 34064U 93036KB  25357.16499021  .00001422  00000+0  43700-3 0  9997", "line2": "2 34064  74.0319 251.5274 0022384 316.6321 194.9451 14.42371122882929"}}, "geometry": {"type": "Point", "coordinates": [-152.07542711228996, -66.73373166016127]}}, {"type": "Feature", "properties": {"norad_id": 34065, "name": "COSMOS 2251 DEB", "group": "cosmos-2251-debris", "lat": 52.40219666578951, "lon": 35.258412085146716, "alt_km": 770.1910710705197, "timestamp": "2025-12-24T03:53:30.040917+00:00", "meta": {"OBJECT_NAME": "COSMOS 2251 DEB", "OBJECT_ID": "1993-036KC", "EPOCH": "2025-12-23T02:58:45.188832", "MEAN_MOTION": 14.38073241, "ECCENTRICITY": 0.00167831, "INCLINATION": 74.0351, "RA_OF_ASC_NODE": 238.9937, "ARG_OF_PERICENTER": 334.7432, "MEAN_ANOMALY": 177.8771, "EPHEMERIS_TYPE": 0, "CLASSIFICATION_TYPE": "U", "NORAD_CAT_ID": 34065, "ELEMENT_SET_NO": 999, "REV_AT_EPOCH": 88354, "BSTAR": 0.00015064138, "MEAN_MOTION_DOT": 4.31e-06, "MEAN_MOTION_DDOT": 0}, "tle": {"line1": "1 34065U 93036KC  25357.12413413  .00000431  00000+0  15064-3 0  9996", "line2": "2 34065  74.0351 238.9937 0016783 334.7432 177.8771 14.38073241883541"}}, "geometry": {"type": "Point", "coordinates": [35.258412085146716, 52.40219666578951]}}, {"type": "Feature", "properties": {"norad_id": 34070, "name": "COSMOS 2251 DEB", "group": "cosmos-2251-debris", "lat": 3.372990943665902, "lon": -87.14997991359678, "alt_km": 629.3736182264156, "timestamp": "2025-12-24T03:53:30.040927+00:00", "meta": {"OBJECT_NAME": "COSMOS 2251 DEB", "OBJECT_ID": "1993-036KH", "EPOCH": "2025-12-23T07:50:45.112128", "MEAN_MOTION": 14.7736362, "ECCENTRICITY": 0.0017939, "INCLINATION": 74.0018, "RA_OF_ASC_NODE": 95.46, "ARG_OF_PERICENTER": 212.5533, "MEAN_ANOMALY": 203.4994, "EPHEMERIS_TYPE": 0, "CLASSIFICATION_TYPE": "U", "NORAD_CAT_ID": 34070, "ELEMENT_SET_NO": 999, "REV_AT_EPOCH": 88767, "BSTAR": 0.002497, "MEAN_MOTION_DOT": 0.00017813, "MEAN_MOTION_DDOT": 0}, "tle": {"line1": "1 34070U 93036KH  25357.32691102  .00017813  00000+0  24970-2 0  9994", "line2": "2 34070  74.0018  95.4600 0017939 212.5533 203.4994 14.77363620887676"}}, "geometry": {"type": "Point", "coordinates": [-87.14997991359678, 3.372990943665902]}}, {"type": "Feature", "properties": {"norad_id": 34114, "name": "COSMOS 2251 DEB", "group": "cosmos-2251-debris", "lat": -65.54517358574577, "lon": -118.87227899320786, "alt_km": 729.1213742399113, "timestamp": "2025-12-24T03:53:30.040937+00:00", "meta": {"OBJECT_NAME": "COSMOS 2251 DEB", "OBJECT_ID": "1993-036KK", "EPOCH": "2025-12-23T12:38:25.063008", "MEAN_MOTION": 14.56514355, "ECCENTRICITY": 0.0048058, "INCLINATION": 74.0582, "RA_OF_ASC_NODE": 23.3905, "ARG_OF_PERICENTER": 14.3515, "MEAN_ANOMALY": 146.5713, "EPHEMERIS_TYPE": 0, "CLASSIFICATION_TYPE": "U", "NORAD_CAT_ID": 34114, "ELEMENT_SET_NO": 999, "REV_AT_EPOCH": 87958, "BSTAR": 0.0016805, "MEAN_MOTION_DOT": 7.574e-05, "MEAN_MOTION_DDOT": 0}, "tle": {"line1": "1 34114U 93036KK  25357.52667897  .00007574  00000+0  16805-2 0  9990", "line2": "2 34114  74.0582  23.3905 0048058  14.3515 146.5713 14.56514355879580"}}, "geometry": {"type": "Point", "coordinates": [-118.87227899320786, -65.54517358574577]}}, {"type": "Feature", "properties": {"norad_id": 34115, "name": "COSMOS 2251 DEB", "group": "cosmos-2251-debris", "lat": -51.093507625964136, "lon": 60.23778401646852, "alt_km": 656.7300421955088, "timestamp": "2025-12-24T03:53:30.040947+00:00", "meta": {"OBJECT_NAME": "COSMOS 2251 DEB", "OBJECT_ID": "1993-036KL", "EPOCH": "2025-12-22T08:38:51.353376", "MEAN_MOTION": 14.79607286, "ECCENTRICITY": 0.00289645, "INCLINATION": 74.0053, "RA_OF_ASC_NODE": 222.9719, "ARG_OF_PERICENTER": 43.6291, "MEAN_ANOMALY": 316.7168, "EPHEMERIS_TYPE": 0, "CLASSIFICATION_TYPE": "U", "NORAD_CAT_ID": 34115, "ELEMENT_SET_NO": 999, "REV_AT_EPOCH": 89554, "BSTAR": 0.0009465402, "MEAN_MOTION_DOT": 7.118e-05, "MEAN_MOTION_DDOT": 0}, "tle": {"line1": "1 34115U 93036KL  25356.36031659  .00007118  00000+0  94654-3 0  9996", "line2": "2 34115  74.0053 222.9719 0028964  43.6291 316.7168 14.79607286895544"}}, "geometry": {"type": "Point", "coordinates": [60.23778401646852, -51.093507625964136]}}, {"type": "Feature", "properties": {"norad_id": 34116, "name": "COSMOS 2251 DEB", "group": "cosmos-2251-debris", "lat": -6.185363203014245, "lon": -16.99217129472188, "alt_km": 713.8157176646337, "timestamp": "2025-12-24T03:53:30.040958+00:00", "meta": {"OBJECT_NAME": "COSMOS 2251 DEB", "OBJECT_ID": "1993-036KM", "EPOCH": "2025-12-22T21:50:50.707104", "MEAN_MOTION": 14.5303332, "ECCENTRICITY": 0.0011799, "INCLINATION": 74.0395, "RA_OF_ASC_NODE": 163.5912, "ARG_OF_PERICENTER": 239.6052, "MEAN_ANOMALY": 241.1776, "EPHEMERIS_TYPE": 0, "CLASSIFICATION_TYPE": "U", "NORAD_CAT_ID": 34116, "ELEMENT_SET_NO": 999, "REV_AT_EPOCH": 88634, "BSTAR": 0.00081214, "MEAN_MOTION_DOT": 3.33e-05, "MEAN_MOTION_DDOT": 0}, "tle": {"line1": "1 34116U 93036KM  25356.91030911  .00003330  00000+0  81214-3 0  9998", "line2": "2 34116  74.0395 163.5912 0011799 239.6052 241.1776 14.53033320886347"}}, "geometry": {"type": "Point", "coordinates": [-16.99217129472188, -6.185363203014245]}}]}